OBJECT_NAME,OBJECT_ID,EPOCH,MEAN_MOTION,ECCENTRICITY,INCLINATION,RA_OF_ASC_NODE,ARG_OF_PERICENTER,MEAN_ANOMALY,EPHEMERIS_TYPE,CLASSIFICATION_TYPE,NORAD_CAT_ID,ELEMENT_SET_NO,REV_AT_EPOCH,BSTAR,MEAN_MOTION_DOT,MEAN_MOTION_DDOT
BEIDOU-2 G8 (C01),2019-027A,2026-06-11T22:29:18.015648,1.00272784,.00103052,1.6434,74.5027,283.0812,24.5577,0,U,44231,999,2602,0,-.231E-5,0
COSMOS 2534 (758),2019-030A,2026-06-11T11:13:19.189344,2.13102304,.0013354,64.3681,192.8091,275.1032,156.1197,0,U,44299,999,5480,0,.121E-5,0
BEIDOU-3 IGSO-2 (C39),2019-035A,2026-06-11T23:39:28.530432,1.00267954,.00399259,55.2458,158.9084,216.2500,359.8397,0,U,44337,999,2561,0,-.41E-6,0
GPS BIII-2  (PRN 18),2019-056A,2026-06-11T15:53:36.970944,2.00569454,.00617956,55.6400,331.3626,197.5682,160.4551,0,U,44506,999,4995,0,-.66E-6,0
BEIDOU-3 M24 (C46),2019-061A,2026-06-11T08:03:49.249152,1.86229258,.0008267,54.3962,182.9254,358.9131,1.1499,0,U,44542,999,4568,0,.129E-5,0
BEIDOU-3 M23 (C45),2019-061B,2026-06-11T17:37:45.111360,1.86227372,.00055966,54.3946,182.8802,337.8055,201.1034,0,U,44543,999,4569,0,.128E-5,0
EUTELSAT 5 WEST B (EGNOS/PRN 121),2019-067A,2026-06-11T21:46:37.773696,1.00271901,.00029784,0.0625,354.4083,85.9791,141.5321,0,U,44624,999,2438,0,-.26E-6,0
BEIDOU-3 IGSO-3 (C40),2019-073A,2026-05-16T19:27:04.075776,1.00246251,.0042953,54.8566,281.2355,189.4588,170.3676,0,U,44709,999,2414,0,-.217E-5,0
BEIDOU-3 M22 (C44),2019-078A,2026-06-09T13:33:18.404640,1.86227604,.0006476,53.9433,300.0965,49.2798,310.7668,0,U,44793,999,4450,0,-.61E-6,0
BEIDOU-3 M21 (C43),2019-078B,2026-06-11T20:27:42.093792,1.86227891,.00043389,53.9144,299.9773,47.8578,312.1638,0,U,44794,999,4455,0,-.67E-6,0
COSMOS 2544 (759),2019-088A,2026-06-09T23:46:15.168576,2.13102164,.00134315,65.5614,73.9710,259.4785,100.3880,0,U,44850,999,5056,0,-.23E-6,0
BEIDOU-3 M19 (C41),2019-090A,2026-06-11T07:28:14.444256,1.86231661,.001803,56.5531,62.9856,297.6207,256.7794,0,U,44864,999,4412,0,-.54E-6,0
BEIDOU-3 M20 (C42),2019-090B,2026-06-10T02:22:05.520864,1.86231666,.00159258,56.5539,63.0605,311.2740,239.7297,0,U,44865,999,4408,0,-.5E-6,0
BEIDOU-3 G2 (C60),2020-017A,2026-06-11T22:10:49.787040,1.00272944,.00022847,2.8522,47.2613,31.8310,233.9464,0,U,45344,999,2320,0,-.127E-5,0
COSMOS 2545 (760),2020-018A,2026-06-11T14:14:17.256192,2.13102615,.00081488,64.3584,312.6158,231.1990,128.7193,0,U,45358,999,4854,0,-.45E-6,0
BEIDOU-3 G3 (C61),2020-040A,2026-06-11T22:19:33.949920,1.00269701,.00025988,2.4329,67.4368,338.0905,300.2018,0,U,45807,999,2201,0,-.339E-5,0
GPS BIII-3  (PRN 23),2020-041A,2026-06-10T12:13:09.899040,2.00558723,.0063583,56.6651,29.2031,204.6446,339.4563,0,U,45854,999,4390,0,-.64E-6,0
GALAXY 30 (WAAS/PRN 135),2020-056C,2026-06-11T16:04:20.942112,1.00270074,.00020954,0.0016,14.0582,71.7827,290.2690,0,U,46114,999,2123,0,.54E-6,0
COSMOS 2547 (705K),2020-075A,2026-06-11T07:31:27.036768,2.13100304,.0009249,64.5991,192.6716,239.6437,120.3411,0,U,46805,999,4378,0,.121E-5,0
GPS BIII-4  (PRN 14),2020-078A,2026-06-11T06:49:15.408768,2.00564772,.0073334,53.9805,211.0184,207.0647,152.7945,0,U,46826,999,4139,0,.85E-6,0
GPS BIII-5  (PRN 11),2021-054A,2026-06-11T11:57:56.321856,2.00569194,.0025307,55.1774,332.6886,228.5338,112.3097,0,U,48859,999,3663,0,-.66E-6,0
QZS-1R (QZSS/PRN 196),2021-096A,2026-06-11T15:33:15.227424,1.00257351,.07544403,37.4503,79.6669,271.6776,276.3022,0,U,49336,999,1695,0,-.25E-5,0
GSAT0223 (GALILEO 27),2021-116A,2026-06-11T03:10:17.992416,1.70475860,.00014044,57.1623,341.8389,187.4451,176.2704,0,U,49809,999,2808,0,-.65E-6,0
GSAT0224 (GALILEO 28),2021-116B,2026-06-11T12:44:48.532128,1.70475859,.0000988,57.1633,341.8270,155.4898,205.7028,0,U,49810,999,2811,0,-.66E-6,0
COSMOS 2557 (706K),2022-075A,2026-06-11T11:28:03.775872,2.13102128,.0010261,64.3020,314.6865,274.6780,85.1972,0,U,52984,999,3059,0,-.45E-6,0
COSMOS 2559 (707K),2022-130A,2026-06-10T08:36:50.817600,2.13101643,.00124272,64.2757,314.8093,178.3735,181.6269,0,U,54031,999,2854,0,-.39E-6,0
COSMOS 2564 (761),2022-161A,2026-06-11T14:38:25.288224,2.13102006,.00121217,64.7412,192.8969,224.5159,135.4637,0,U,54377,999,2751,0,.121E-5,0
GPS BIII-6  (PRN 28),2023-009A,2026-06-07T17:40:41.611008,2.00572181,.0006216,55.1215,148.8907,316.9568,225.6480,0,U,55268,999,2505,0,.105E-5,0
BEIDOU-3 G4 (C62),2023-066A,2026-06-10T08:49:24.195360,1.00265779,.00043973,0.4953,329.6081,171.1303,30.2733,0,U,56564,999,1132,0,-.265E-5,0
NVS-01 (IRNSS-1J),2023-076A,2026-06-11T22:24:55.935072,1.00267373,.00031236,2.1792,244.6021,37.7448,83.7087,0,U,56759,999,1106,0,-.318E-5,0
COSMOS 2569 (703K),2023-114A,2026-06-11T03:40:24.851424,2.13103660,.00108965,65.2988,72.8239,296.8966,63.0099,0,U,57517,999,2213,0,-.3E-6,0
